STARLINK-2326           
1 47870U 21021L   26068.87982480 -.00005513  00000+0 -17423-3 0  9995
2 47870  53.1577 280.0985 0000936  92.4868 267.6240 15.30185263275996
YAOGAN-43 01G           
1 60464U 24148G   26068.44348481  .00010133  00000+0  35873-3 0  9993
2 60464  35.0006  62.0013 0007382 306.3543  53.6492 15.28332833 87004
